JINJUSat 1B
1 63210U 25052A   26068.66363707  .00019955  00000-0  68430-3 0  9999
2 63210  97.4113 325.4613 0005550  82.1930 277.9941 15.30194857 54866
NUSHSAT 1
1 63211U 25052B   26068.64700493  .00023034  00000-0  74857-3 0  9998
2 63211  97.4095 325.7239 0005501  84.7512 275.4357 15.31903202 54882
TEVEL2-4
1 63213U 25052D   26068.69417974  .00020990  00000-0  70363-3 0  9990
2 63213  97.4009 325.1237 0004733  95.3468 264.8313 15.30925813 54879
TEVEL2-5
1 63214U 25052E   26068.96660006  .00021339  00000-0  71765-3 0  9992
2 63214  97.4013 325.3677 0004700  95.3936 264.7842 15.30817434 54919
TEVEL2-6
1 63215U 25052F   26069.17253798  .00023891  00000-0  80362-3 0  9991
2 63215  97.4016 325.5593 0004774  95.3278 264.8508 15.30788319 54944
TEVEL2-1
1 63217U 25052H   26069.17091446  .00023603  00000-0  80432-3 0  9992
2 63217  97.3990 325.2892 0004803 104.6520 255.5253 15.30369474 54932
TEVEL2-3
1 63218U 25052J   26069.16848149  .00023370  00000-0  79554-3 0  9996
2 63218  97.3994 325.2984 0004811 105.2765 254.9008 15.30404479 54932
TEVEL2-2
1 63219U 25052K   26068.64848259  .00020339  00000-0  69428-3 0  9992
2 63219  97.3987 324.7700 0004693 105.7930 254.3828 15.30343745 54855
TEVEL2-9
1 63237U 25052AD  26069.16051179  .00021665  00000-0  77796-3 0  9997
2 63237  97.4056 324.8484 0008051 123.3420 236.8591 15.28657117 54888
TEVEL2-7
1 63238U 25052AE  26068.66113296  .00019244  00000-0  69668-3 0  9990
2 63238  97.4054 324.3041 0008105 124.6830 235.5175 15.28414096 54803
TEVEL2-8
1 63239U 25052AF  26068.66815443  .00019130  00000-0  69304-3 0  9995
2 63239  97.4055 324.2923 0008031 124.9191 235.2804 15.28392908 54807
HYDRA-W
1 63490U 25052BL  26068.25663552  .00214089  00000-0  23110-2 0  9995
2 63490  97.3927 329.3965 0009113 107.1858 253.0398 15.62903885 55122
HADES-ICM (SO-125)
1 63492U 25052BN  26069.21188880  .00176386  00000-0  23883-2 0  9994
2 63492  97.3942 329.6785 0008857 110.0541 250.1668 15.57053508 55221
SPIRONE
1 66657U 25274H   26068.75112205  .00004139  00000-0  40237-3 0  9991
2 66657  97.7435 359.5247 0011966 353.7886   6.3183 14.93072072 15388
K-HERO
1 66660U 25274L   26068.31556862  .00002739  00000-0  26499-3 0  9996
2 66660  97.7443 359.1816 0014137 357.6980   2.4172 14.93525062 15321
SNUGLITE-III DURI
1 66661U 25274M   26068.77639581  .00002571  00000-0  24849-3 0  9998
2 66661  97.7440 359.6505 0014717 357.0951   3.0181 14.93615044 15399
SilverSat
1 66909U 98067XV  26069.21803307  .00249186  00000-0  17776-2 0  9997
2 66909  51.6252  62.1676 0005475  80.1195 280.0421 15.72479555 15278
SAKHACUBE-CHOLBON
1 67290U 25313AU  26069.14281564  .00013139  00000-0  56208-3 0  9993
2 67290  97.4002 145.5276 0009023 352.8739   7.2368 15.22912070 10892
RS95S (QMR-KWT-2)
1 67291U 25313AV  26068.99929107  .00017449  00000-0  73239-3 0  9999
2 67291  97.4001 145.4138 0008661 351.7847   8.3246 15.23497705 10872
IO-86
1 40931U          25360.30710720  .00000000  00000-0  12800-3 0    00
2 40931   6.0006 332.5373 0012733 338.8432   8.1437 14.79075515    01
